OBJECT_NAME,OBJECT_ID,EPOCH,MEAN_MOTION,ECCENTRICITY,INCLINATION,RA_OF_ASC_NODE,ARG_OF_PERICENTER,MEAN_ANOMALY,EPHEMERIS_TYPE,CLASSIFICATION_TYPE,NORAD_CAT_ID,ELEMENT_SET_NO,REV_AT_EPOCH,BSTAR,MEAN_MOTION_DOT,MEAN_MOTION_DDOT
STARLINK-1994,2021-009AT,2026-06-06T04:00:03.998880,15.77909984,.0001273,53.0420,287.2970,58.3462,276.4878,0,U,47589,999,597,.23608E-2,.427722E-2,0
STARLINK-1995,2021-009AU,2026-06-06T04:00:03.998880,15.77606315,.0001247,53.0388,304.7795,65.3557,154.2888,0,U,47590,999,601,.86913E-3,.149888E-2,0
STARLINK-1997,2021-009AW,2026-06-06T04:00:03.998880,15.91186435,.0010112,53.0302,278.7951,327.3444,100.4847,0,U,47592,999,600,.12575E-2,.408286E-2,.74254E-4
STARLINK-2001,2021-009BA,2026-06-05T03:55:14.285856,15.66699316,.00021008,53.0416,315.8567,126.5041,233.6168,0,U,47596,999,29444,.70749078E-3,.7592E-3,0
STARLINK-2021,2021-009BJ,2026-06-06T04:00:03.998880,15.91000524,.0008837,53.0317,254.6456,343.2919,322.3052,0,U,47604,999,600,.12521E-2,.402158E-2,.72168E-4
STARLINK-1609,2021-012B,2026-06-05T20:14:24.595008,15.45144218,.0002946,53.1592,10.1345,145.5546,214.5652,0,U,47621,999,29366,.20834E-2,.101193E-2,0
STARLINK-1655,2021-012D,2026-06-06T04:00:03.998880,15.91920260,.0001389,53.0295,245.2789,64.0834,284.7918,0,U,47623,999,588,.12467E-2,.418515E-2,.78203E-4
STARLINK-1704,2021-012F,2026-06-06T00:00:02.998944,15.57231857,.0004888,53.0466,358.8013,144.7465,220.9602,0,U,47625,999,594,.19432E-2,.146291E-2,0
STARLINK-1972,2021-012H,2026-06-05T23:25:02.205408,15.62864918,.0002859,53.0438,257.9671,300.2767,59.7964,0,U,47627,999,29519,.16547E-2,.154578E-2,0
STARLINK-1973,2021-012J,2026-06-05T20:28:54.427008,15.31678215,.0001395,53.1610,14.8903,88.5374,271.5788,0,U,47628,999,29359,.45202E-4,.1037E-4,0
STARLINK-1983,2021-012L,2026-06-05T20:24:00.221184,15.31709506,.000097,53.1579,359.4833,79.7205,280.3906,0,U,47630,999,29378,.11681E-3,.3262E-4,0
STARLINK-1992,2021-012N,2026-06-05T01:49:20.258688,15.31707581,.00009117,53.1601,286.2131,84.2224,275.8882,0,U,47632,999,29474,.17172841E-3,.4969E-4,0
STARLINK-2015,2021-012U,2026-06-05T15:00:45.567360,15.34959836,.00037375,53.1584,283.0748,306.7527,53.3133,0,U,47638,999,29483,.14916829E-2,.51285E-3,0
STARLINK-2019,2021-012X,2026-06-06T04:00:03.998880,15.78476452,.0007059,53.0377,226.6611,345.2660,52.9176,0,U,47641,999,597,.43673E-3,.77426E-3,0
STARLINK-2031,2021-012AE,2026-06-05T19:23:35.910528,15.31706565,.00012677,53.1603,359.6364,73.8787,286.2354,0,U,47648,999,29380,.25618273E-3,.7594E-4,0
STARLINK-2032,2021-012AF,2026-06-06T04:00:03.998880,15.86347935,.0007679,53.0338,293.3700,343.4941,7.7108,0,U,47649,999,604,.10522E-2,.277633E-2,0
STARLINK-2033,2021-012AG,2026-06-04T18:04:25.643712,15.40173720,.00044399,53.1519,1.6534,131.0175,229.1215,0,U,47650,999,29366,.12542003E-2,.51043E-3,0
STARLINK-2036,2021-012AJ,2026-06-06T04:00:03.998880,15.57794363,.0000793,53.1596,1.2006,82.4890,211.0863,0,U,47652,999,597,.48816E-2,.387589E-2,0
STARLINK-2039,2021-012AM,2026-06-05T20:42:20.474208,15.31707356,.0000835,53.1592,14.8883,81.5279,278.5817,0,U,47655,999,29359,.67703E-4,.1737E-4,0
STARLINK-2040,2021-012AN,2026-06-05T19:16:52.608288,15.31710917,.00011325,53.1607,359.6495,68.1694,291.9428,0,U,47656,999,29379,.10549572E-3,.2911E-4,0
STARLINK-2041,2021-012AP,2026-06-06T00:00:02.998944,15.76281890,.000336,53.1547,353.4448,247.6195,25.3633,0,U,47657,999,590,.11147E-2,.182138E-2,0
STARLINK-2065,2021-012BE,2026-06-05T20:11:05.647776,16.09054831,.0013805,53.1386,285.7640,313.5649,46.4238,0,U,47672,999,29482,.11562E-2,.1056498E-1,.66315E-3
STARLINK-2083,2021-012BJ,2026-06-06T00:00:02.998944,15.78091446,.0007967,53.0408,206.4963,3.0524,282.7345,0,U,47676,999,594,.1128E-2,.200522E-2,0
STARLINK-2068,2021-017A,2026-06-05T15:51:22.484160,15.31709025,.00018252,53.1581,141.7880,55.4957,304.6217,0,U,47722,999,29155,.12583248E-3,.3542E-4,0
STARLINK-2107,2021-017B,2026-06-05T01:02:33.648000,15.31709515,.00013893,53.1612,80.3667,118.0521,242.0621,0,U,47723,999,29232,.13415032E-3,.3801E-4,0
STARLINK-2131,2021-017G,2026-06-05T22:11:09.074112,15.46643896,.0007086,53.0709,147.1342,38.1546,321.9962,0,U,47728,999,29148,.10833E-2,.54905E-3,0
STARLINK-2140,2021-017J,2026-06-05T08:37:20.673120,15.31689145,.00014215,53.1600,169.1620,81.4245,278.6917,0,U,47730,999,29108,-.16357064E-4,-.873E-5,0
STARLINK-2141,2021-017K,2026-06-06T04:00:03.998880,15.79084983,.0001528,53.1539,135.9445,115.0873,38.7170,0,U,47731,999,593,.53676E-2,.1088214E-1,0
STARLINK-2143,2021-017M,2026-06-05T13:05:42.509760,15.31711990,.00012972,53.1572,168.0196,107.9871,252.1272,0,U,47733,999,29117,.11573456E-3,.3229E-4,0
STARLINK-2144,2021-017N,2026-06-05T06:52:11.013312,15.31711630,.0001052,53.1565,156.4340,76.4410,283.6708,0,U,47734,999,29128,.1094E-3,.3033E-4,0
STARLINK-2147,2021-017Q,2026-06-05T22:14:45.619296,15.43804873,.0005191,53.0716,148.5472,32.1522,327.9799,0,U,47736,999,29146,.18327E-2,.8484E-3,0
STARLINK-2150,2021-017T,2026-06-04T05:41:15.502272,15.31691625,.00013219,53.1579,176.6389,71.5399,288.5746,0,U,47739,999,29094,.60688596E-4,.1518E-4,0
STARLINK-2156,2021-017W,2026-06-05T16:13:05.558592,15.31708291,.00011641,53.1572,144.8775,85.4713,274.6421,0,U,47742,999,29151,.84184257E-4,.2249E-4,0
STARLINK-2159,2021-017Z,2026-06-05T05:58:07.043232,15.57473929,.0006761,53.1530,144.6614,29.9295,330.2103,0,U,47745,999,29142,.11482E-2,.86403E-3,0
STARLINK-2160,2021-017AA,2026-06-05T06:22:14.942208,15.46129628,.000624,53.1564,152.0456,38.2058,321.9391,0,U,47746,999,29131,.68657E-3,.33922E-3,0
STARLINK-2161,2021-017AB,2026-06-05T16:06:19.914912,15.31713608,.00012446,53.1563,144.6340,70.9189,289.1947,0,U,47747,999,29149,.21156137E-3,.6208E-4,0
STARLINK-2162,2021-017AC,2026-06-06T04:00:03.998880,15.85184085,.0001229,53.1512,122.9639,162.6433,102.5131,0,U,47748,999,599,.10544E-2,.262022E-2,0
STARLINK-2163,2021-017AD,2026-06-06T00:00:02.998944,15.76641435,.000166,53.1533,130.3044,139.7479,118.1594,0,U,47749,999,595,.86476E-3,.142722E-2,0
STARLINK-2164,2021-017AE,2026-06-05T16:26:23.797824,15.31706113,.00011574,53.1585,144.2112,82.7817,277.3316,0,U,47750,999,29147,.16648376E-3,.4805E-4,0
STARLINK-2169,2021-017AG,2026-06-06T04:00:03.998880,15.60010082,.0002265,53.1533,141.1062,72.8242,258.0348,0,U,47752,999,592,.9262E-2,.832952E-2,0
STARLINK-2170,2021-017AH,2026-06-04T06:15:40.476096,15.31705253,.00014396,53.1559,161.2405,135.7842,224.3275,0,U,47753,999,29115,-.13322711E-4,-.779E-5,0
STARLINK-2171,2021-017AJ,2026-06-06T01:04:11.504640,16.19868334,.0004407,53.0269,81.2865,206.2831,153.7983,0,U,47754,999,29236,.99913E-3,.1964813E-1,.11805E-4
STARLINK-2178,2021-017AQ,2026-06-05T07:23:25.508832,15.31717155,.00009794,53.1564,169.1410,77.7792,282.3319,0,U,47760,999,29111,.12370806E-3,.3478E-4,0
STARLINK-2180,2021-017AS,2026-06-04T05:34:56.404128,15.71190584,.00063525,53.1562,158.3679,21.6786,338.4501,0,U,47762,999,29116,.7435809E-3,.96434E-3,0
STARLINK-2185,2021-017AX,2026-06-04T05:25:06.617856,15.51767741,.0007388,53.1538,153.7405,30.5290,329.6149,0,U,47767,999,29125,.13524025E-2,.82561E-3,0
STARLINK-2193,2021-017BA,2026-06-04T05:35:23.462016,15.31706833,.00011095,53.1567,161.3468,93.5908,266.5220,0,U,47770,999,29112,.74225772E-4,.1939E-4,0
STARLINK-2194,2021-017BB,2026-06-05T06:45:26.861760,15.31716887,.0001013,53.1566,156.4022,81.4765,278.6351,0,U,47771,999,29129,.15875E-4,.128E-5,0
STARLINK-2195,2021-017BC,2026-06-06T04:00:03.998880,15.31712623,.0001121,53.1584,165.7413,90.7955,301.1528,0,U,47772,999,577,-.34394E-3,-.11027E-3,0
STARLINK-2196,2021-017BD,2026-06-05T07:36:51.348672,15.31716630,.00010406,53.1564,169.1214,84.5899,275.5222,0,U,47773,999,29108,.1428127E-3,.4071E-4,0
STARLINK-2209,2021-017BG,2026-06-05T06:22:43.651200,15.55653714,.0007035,53.1533,144.4159,25.8133,334.3228,0,U,47776,999,29145,.69284E-3,.48288E-3,0
STARLINK-2211,2021-017BJ,2026-06-04T13:06:49.903488,15.48622006,.00059057,53.1571,153.0200,12.0111,348.1038,0,U,47778,999,29126,.15080237E-2,.82338E-3,0
STARLINK-2213,2021-017BL,2026-06-05T12:21:02.054304,15.31691558,.00010719,53.1562,155.3063,113.2454,246.8661,0,U,47780,999,29135,-.67667508E-4,-.2464E-4,0
STARLINK-2257,2021-018A,2026-06-05T10:08:13.606080,15.31700522,.00011363,53.1585,197.5909,102.8844,257.2285,0,U,47787,999,29012,.67958799E-4,.1744E-4,0
STARLINK-2314,2021-018B,2026-06-05T08:27:33.416640,15.38724305,.00052019,53.1546,169.9570,13.6681,346.4464,0,U,47788,999,29052,.13098304E-2,.50838E-3,0
STARLINK-2315,2021-018C,2026-06-05T09:45:53.736480,15.31702763,.00011819,53.1599,191.2822,75.8849,284.2284,0,U,47789,999,29020,.15293293E-4,.11E-5,0
STARLINK-2319,2021-018D,2026-06-04T06:06:39.790944,15.31712219,.0001528,53.1575,174.0297,42.5624,317.5496,0,U,47790,999,29036,.12359423E-3,.3473E-4,0
STARLINK-2322,2021-018E,2026-06-05T09:34:08.193216,15.31715303,.00013366,53.1572,194.9322,93.2240,266.8915,0,U,47791,999,29017,.73895392E-4,.193E-4,0
STARLINK-2334,2021-018F,2026-06-05T09:32:27.595104,15.31696992,.00011279,53.1593,191.1594,105.5487,254.5639,0,U,47792,999,29020,-.20218614E-4,-.992E-5,0
STARLINK-2338,2021-018G,2026-06-05T09:52:34.268736,15.31704300,.00013383,53.1589,191.0923,64.2359,295.8780,0,U,47793,999,29019,-.3061436E-5,-.46E-5,0
STARLINK-2373,2021-018K,2026-06-05T09:29:54.047616,15.33473982,.00026225,53.1557,190.9217,31.8572,328.2588,0,U,47796,999,29020,.12147423E-2,.39696E-3,0
STARLINK-2377,2021-018L,2026-06-05T10:18:44.992224,15.31706267,.0001111,53.1559,207.2522,83.5478,276.5650,0,U,47797,999,28998,.10452362E-3,.288E-4,0
STARLINK-2379,2021-018M,2026-06-05T08:45:27.389376,15.31705661,.00014157,53.1587,191.3080,96.8493,263.2669,0,U,47798,999,29019,.37486252E-4,.798E-5,0
STARLINK-2380,2021-018N,2026-06-05T09:09:59.422464,15.31707364,.00012394,53.1574,184.2349,80.6902,279.4240,0,U,47799,999,29029,.83649773E-4,.2232E-4,0
STARLINK-2381,2021-018P,2026-06-05T08:58:51.450240,15.31715533,.00011025,53.1574,191.1764,107.8436,252.2685,0,U,47800,999,29019,.13356842E-3,.3784E-4,0
